H1 CPF  1  DGF 2022 09 06 20  7491 larets     NONE      
H2   304206 5557    27944 2022 09 06 00 00 00 2022 09 13 00 00 00    30 1 1  0 0 0
H5  0.0650
H9
10 0 59830  68400.000000  0      -2334182.996       5729840.339      -3404119.042
10 0 59830  68430.000000  0      -2326470.748       5844867.710      -3207398.184
10 0 59830  68460.000000  0      -2315909.452       5953928.733      -3007401.154
10 0 59830  68490.000000  0      -2302535.443       6056898.484      -2804331.240
10 0 59830  68520.000000  0      -2286388.466       6153658.364      -2598395.023
10 0 59830  68550.000000  0      -2267511.614       6244096.239      -2389802.165
10 0 59830  68580.000000  0      -2245951.254       6328106.590      -2178765.192
10 0 59830  68610.000000  0      -2221756.961       6405590.633      -1965499.275
10 0 59830  68640.000000  0      -2194981.433       6476456.452      -1750222.011
10 0 59830  68670.000000  0      -2165680.417       6540619.115      -1533153.197
10 0 59830  68700.000000  0      -2133912.620       6598000.781      -1314514.603
10 0 59830  68730.000000  0      -2099739.622       6648530.813      -1094529.740
10 0 59830  68760.000000  0      -2063225.787       6692145.863       -873423.630
10 0 59830  68790.000000  0      -2024438.160       6728789.969       -651422.567
10 0 59830  68820.000000  0      -1983446.374       6758414.632       -428753.882
10 0 59830  68850.000000  0      -1940322.543       6780978.897       -205645.699
10 0 59830  68880.000000  0      -1895141.159       6796449.408         17673.316
10 0 59830  68910.000000  0      -1847978.982       6804800.461        240974.202
10 0 59830  68940.000000  0      -1798914.926       6806014.043        464027.946
10 0 59830  68970.000000  0      -1748029.946       6800079.860        686605.737
10 0 59830  69000.000000  0      -1695406.916       6786995.361        908479.206
10 0 59830  69030.000000  0      -1641130.511       6766765.745       1129420.672
10 0 59830  69060.000000  0      -1585287.086       6739403.965       1349203.387
10 0 59830  69090.000000  0      -1527964.546       6704930.720       1567601.777
10 0 59830  69120.000000  0      -1469252.228       6663374.441       1784391.679
10 0 59830  69150.000000  0      -1409240.763       6614771.263       1999350.585
10 0 59830  69180.000000  0      -1348021.960       6559164.992       2212257.872
10 0 59830  69210.000000  0      -1285688.665       6496607.063       2422895.042
10 0 59830  69240.000000  0      -1222334.640       6427156.490       2631045.946
10 0 59830  69270.000000  0      -1158054.428       6350879.802       2836497.021
10 0 59830  69300.000000  0      -1092943.222       6267850.977       3039037.511
10 0 59830  69330.000000  0      -1027096.731       6178151.360       3238459.690
10 0 59830  69360.000000  0       -960611.046       6081869.581       3434559.079
10 0 59830  69390.000000  0       -893582.517       5979101.460       3627134.660
10 0 59830  69420.000000  0       -826107.615       5869949.909       3815989.090
10 0 59830  69450.000000  0       -758282.806       5754524.820       4000928.910
10 0 59830  69480.000000  0       -690204.417       5632942.941       4181764.759
10 0 59830  69510.000000  0       -621968.505       5505327.745       4358311.563
10 0 59830  69540.000000  0       -553670.726       5371809.288       4530388.736
10 0 59830  69570.000000  0       -485406.201       5232524.060       4697820.355
10 0 59830  69600.000000  0       -417269.395       5087614.832       4860435.338
10 0 59830  69630.000000  0       -349353.985       4937230.499       5018067.608
10 0 59830  69660.000000  0       -281752.744       4781525.929       5170556.259
10 0 59830  69690.000000  0       -214557.415       4620661.791       5317745.721
10 0 59830  69720.000000  0       -147858.597       4454804.390       5459485.921
10 0 59830  69750.000000  0        -81745.625       4284125.476       5595632.434
10 0 59830  69780.000000  0        -16306.456       4108802.061       5726046.634
10 0 59830  69810.000000  0         48372.443       3929016.222       5850595.828
10 0 59830  69840.000000  0        112206.207       3744954.897       5969153.385
10 0 59830  69870.000000  0        175111.680       3556809.687       6081598.861
10 0 59830  69900.000000  0        237007.514       3364776.642       6187818.113
10 0 59830  69930.000000  0        297814.278       3169056.058       6287703.405
10 0 59830  69960.000000  0        357454.550       2969852.258       6381153.518
10 0 59830  69990.000000  0        415853.013       2767373.372       6468073.845
10 0 59830  70020.000000  0        472936.551       2561831.118       6548376.481
10 0 59830  70050.000000  0        528634.332       2353440.569       6621980.311
10 0 59830  70080.000000  0        582877.900       2142419.926       6688811.081
10 0 59830  70110.000000  0        635601.247       1928990.278       6748801.471
10 0 59830  70140.000000  0        686740.900       1713375.373       6801891.152
10 0 59830  70170.000000  0        736235.989       1495801.373       6848026.842
10 0 59830  70200.000000  0        784028.320       1276496.620       6887162.355
10 0 59830  70230.000000  0        830062.438       1055691.392       6919258.635
10 0 59830  70260.000000  0        874285.694        833617.664       6944283.797
10 0 59830  70290.000000  0        916648.303        610508.861       6962213.153
10 0 59830  70320.000000  0        957103.397        386599.616       6973029.233
10 0 59830  70350.000000  0        995607.079        162125.521       6976721.805
10 0 59830  70380.000000  0       1032118.465        -62677.127       6973287.880
10 0 59830  70410.000000  0       1066599.730       -287571.571       6962731.716
10 0 59830  70440.000000  0       1099016.143       -512320.854       6945064.808
10 0 59830  70470.000000  0       1129336.109       -736688.064       6920305.869
10 0 59830  70500.000000  0       1157531.189       -960436.582       6888480.812
10 0 59830  70530.000000  0       1183576.136      -1183330.331       6849622.720
10 0 59830  70560.000000  0       1207448.908      -1405134.031       6803771.820
10 0 59830  70590.000000  0       1229130.689      -1625613.441       6750975.434
10 0 59830  70620.000000  0       1248605.903      -1844535.617       6691287.936
10 0 59830  70650.000000  0       1265862.221      -2061669.151       6624770.694
10 0 59830  70680.000000  0       1280890.571      -2276784.423       6551492.008
10 0 59830  70710.000000  0       1293685.131      -2489653.845       6471527.044
10 0 59830  70740.000000  0       1304243.332      -2700052.103       6384957.753
10 0 59830  70770.000000  0       1312565.840      -2907756.399       6291872.793
10 0 59830  70800.000000  0       1318656.548      -3112546.687       6192367.432
10 0 59830  70830.000000  0       1322522.559      -3314205.907       6086543.457
10 0 59830  70860.000000  0       1324174.165      -3512520.216       5974509.068
10 0 59830  70890.000000  0       1323624.820      -3707279.215       5856378.775
10 0 59830  70920.000000  0       1320891.119      -3898276.173       5732273.274
10 0 59830  70950.000000  0       1315992.758      -4085308.251       5602319.338
10 0 59830  70980.000000  0       1308952.499      -4268176.715       5466649.687
10 0 59830  71010.000000  0       1299796.132      -4446687.157       5325402.857
10 0 59830  71040.000000  0       1288552.427      -4620649.700       5178723.063
10 0 59830  71070.000000  0       1275253.088      -4789879.211       5026760.058
10 0 59830  71100.000000  0       1259932.701      -4954195.500       4869668.980
10 0 59830  71130.000000  0       1242628.673      -5113423.522       4707610.200
10 0 59830  71160.000000  0       1223381.179      -5267393.570       4540749.154
10 0 59830  71190.000000  0       1202233.090      -5415941.463       4369256.177
10 0 59830  71220.000000  0       1179229.912      -5558908.722       4193306.331
10 0 59830  71250.000000  0       1154419.712      -5696142.751       4013079.222
10 0 59830  71280.000000  0       1127853.047      -5827497.001       3828758.816
10 0 59830  71310.000000  0       1099582.882      -5952831.131       3640533.255
10 0 59830  71340.000000  0       1069664.513      -6072011.164       3448594.660
10 0 59830  71370.000000  0       1038155.481      -6184909.635       3253138.935
10 0 59830  71400.000000  0       1005115.484      -6291405.730       3054365.569
10 0 59830  71430.000000  0        970606.290      -6391385.426       2852477.433
10 0 59830  71460.000000  0        934691.638      -6484741.615       2647680.565
10 0 59830  71490.000000  0        897437.143      -6571374.223       2440183.962
10 0 59830  71520.000000  0        858910.200      -6651190.326       2230199.362
10 0 59830  71550.000000  0        819179.886      -6724104.244       2017941.026
10 0 59830  71580.000000  0        778316.851      -6790037.645       1803625.517
10 0 59830  71610.000000  0        736393.221      -6848919.629       1587471.480
10 0 59830  71640.000000  0        693482.490      -6900686.814       1369699.408
10 0 59830  71670.000000  0        649659.410      -6945283.411       1150531.417
10 0 59830  71700.000000  0        604999.882      -6982661.278        930191.008
10 0 59830  71730.000000  0        559580.838      -7012779.981        708902.833
10 0 59830  71760.000000  0        513480.130      -7035606.832        486892.461
10 0 59830  71790.000000  0        466776.416      -7051116.926        264386.138
10 0 59830  71820.000000  0        419549.042      -7059293.159         41610.550
10 0 59830  71850.000000  0        371877.931      -7060126.248       -181207.411
10 0 59830  71880.000000  0        323843.461      -7053614.734       -403840.882
10 0 59830  71910.000000  0        275526.354      -7039764.980       -626063.268
10 0 59830  71940.000000  0        227007.556      -7018591.161       -847648.474
10 0 59830  71970.000000  0        178368.122      -6990115.239      -1068371.139
99
